QIANFAN-65              
1 62795U 25016L   25241.26233717  .00000093  00000+0  12541-3 0  9995
2 62795  88.9788 113.9709 0012374 293.3382  66.6467 13.50965735 33001
QIANFAN-66              
1 62796U 25016M   25241.21702389  .00000093  00000+0  12542-3 0  9998
2 62796  88.9808 113.9249 0013397 288.1484  71.8208 13.50960918 33048
QIANFAN-67              
1 62797U 25016N   25241.22109901  .00000091  00000+0  12198-3 0  9996
2 62797  88.9798 113.9604 0013516 295.8011  64.1745 13.50969553 33018
QIANFAN-68              
1 62798U 25016P   25241.22519978  .00000096  00000+0  13028-3 0  9994
2 62798  88.9801 114.0043 0014099 293.6469  66.3201 13.50967043 32992
QIANFAN-69              
1 62799U 25016Q   25241.22934218  .00000095  00000+0  12873-3 0  9999
2 62799  88.9780 113.8931 0014297 294.6788  65.2874 13.50962537 33030
QIANFAN-70              
1 62800U 25016R   25241.24581015  .00000095  00000+0  12943-3 0  9995
2 62800  88.9801 114.0075 0013694 284.0477  75.9152 13.50966497 32997
QIANFAN-71              
1 62801U 25016S   25241.24177588  .00000090  00000+0  12128-3 0  9992
2 62801  88.9795 113.9939 0014296 298.5768  61.3944 13.50966169 32993
QIANFAN-72              
1 62802U 25016T   25241.23758536  .00000104  00000+0  14268-3 0  9993
2 62802  88.9785 114.0131 0017858 304.5636  55.3829 13.50961630 32980
